STARLINK-36295
1 68667U 26077F   26124.83335647 -.01936769  00000+0 -27299-1 0  9991
2 68667  97.2843 356.4423 0001241  93.2484 312.4154 15.59916822  4757
STARLINK-37221
1 68668U 26077G   26124.83335647 -.02010711  00000+0 -37325-1 0  9994
2 68668  97.2934 356.4063 0001678 122.3864 204.3647 15.52083562  4754
STARLINK-37302
1 68669U 26077H   26124.83335647 -.01908224  00000+0 -24281-1 0  9996
2 68669  97.2845 356.4617 0001381  88.3000   4.5501 15.62505650  4752
STARLINK-37298
1 68670U 26077J   26124.83335647 -.01987281  00000+0 -22347-1 0  9999
2 68670  97.2838 356.4684 0001640  88.7911  28.2437 15.65751544  4639
STARLINK-37224
1 68671U 26077K   26124.83335647 -.01923751  00000+0 -32448-1 0  9995
2 68671  97.2840 356.4194 0001778 101.7187 251.5656 15.55115588  4705
STARLINK-37296
1 68672U 26077L   26124.83335647  .00026100  00000+0  48056-3 0  9999
2 68672  97.2840 356.3625 0001641 100.5355 123.4076 15.49153406  4704
STARLINK-37316
1 68673U 26077M   26124.83335647 -.01984762  00000+0 -21685-1 0  9997
2 68673  97.2839 356.4778 0001782  97.0173  41.5270 15.66459602  4754
STARLINK-36672
1 68674U 26077N   26124.83335647  .00003503  00000+0  66101-4 0  9995
2 68674  97.2838 356.3671 0001788  82.1158 157.2494 15.49162218  4757
STARLINK-36669
1 68675U 26077P   26124.83335647 -.01979571  00000+0 -22951-1 0  9998
2 68675  97.2840 356.4785 0001802  97.4471  43.0837 15.64975062  4751
STARLINK-37312
1 68676U 26077Q   26124.83335647 -.01918932  00000+0 -24140-1 0  9995
2 68676  97.2843 356.4839 0001751  86.1010  57.8233 15.62811149  4758
STARLINK-36168
1 68677U 26077R   26124.83335647  .00023160  00000+0  42703-3 0  9990
2 68677  97.2840 356.3842 0001741  89.7855 184.4386 15.49135288  4758
STARLINK-37122
1 68678U 26077S   26124.83335647 -.01921410  00000+0 -25047-1 0  9999
2 68678  97.2844 356.4762 0001546  80.8488  47.1499 15.61907342  4709
STARLINK-37310
1 68679U 26077T   26124.83335647 -.02140639  00000+0 -38486-1 0  9998
2 68679  97.2838 356.4183 0001246 106.3129 252.5762 15.53181155  4750
STARLINK-37306
1 68680U 26077U   26124.83335647 -.01920217  00000+0 -26600-1 0  9992
2 68680  97.2840 356.4751 0001692  80.6909  44.4296 15.60333918  4755
STARLINK-37307
1 68681U 26077V   26124.83335647 -.01915294  00000+0 -28069-1 0  9993
2 68681  97.2840 356.4655 0001522  85.1219  18.3433 15.58854026  4753
STARLINK-37300
1 68682U 26077W   26124.83335647 -.01988159  00000+0 -20768-1 0  9992
2 68682  97.2839 356.5109 0001838 102.7549 113.5498 15.67569302  4590
STARLINK-37304
1 68683U 26077X   26124.83335647 -.01917973  00000+0 -28222-1 0  9992
2 68683  97.2839 356.4741 0001620  83.8486  40.1775 15.58752036  4759
STARLINK-37287
1 68684U 26077Y   26124.83335647 -.01929808  00000+0 -26946-1 0  9994
2 68684  97.2842 356.4798 0001701  86.5763  50.0650 15.60144879  4759
STARLINK-36278
1 68685U 26077Z   26124.72657993  .00107715  00000+0  71299-3 0  9999
2 68685  97.2830 356.4124 0001264  92.6637 267.4773 15.75221516  3739
STARLINK-37213
1 68686U 26077AA  26124.83335647 -.01786608  00000+0 -35350-1 0  9994
2 68686  97.2841 356.4051 0001965 111.8089 214.7885 15.50449544  4752
HJS-8A
1 68687U 26078A   26121.56499271  .00000303  00000+0  35284-3 0  9993
2 68687  86.4967 298.5999 0001401  91.1620 268.9698 13.65394683  2731
JIELONG-3 DEB
1 68688U 26078B   26124.82199215  .00000337  00000+0  10564-3 0  9992
2 68688  86.5860 296.8924 0250240 310.2623  47.6919 14.21584532  3308
CYGNUS NG-24
1 68689U 26079A   26124.45777113  .00006118  00000+0  11872-3 0  9998
2 68689  51.6305 156.5570 0007324  22.3552 337.7754 15.49089675  3714
JIELONG-3 R/B
1 68690U 26078C   26124.86489512  .00004554  00000+0  21028-3 0  9993
2 68690  86.6402 296.4290 0441585 306.3125  49.8059 14.61919415  3409
JILIN GAOFEN OBJECT A
1 68691U 26080A   26124.84261536  .00000603  00000+0  42748-4 0  9993
2 68691  97.6632 200.4432 0012062 205.5671 154.4962 15.08490327  3123
JILIN GAOFEN OBJECT B
1 68692U 26080B   26124.83045166  .00004803  00000+0  30333-3 0  9994
2 68692  97.6601 200.4534 0015154 204.9008 155.1491 15.09457235  3122
JILIN GAOFEN OBJECT C
1 68693U 26080C   26124.77427926  .00000669  00000+0  46987-4 0  9995
2 68693  97.6600 200.3754 0013593 187.7001 172.4021 15.08469886  3115
JILIN GAOFEN OBJECT D
1 68694U 26080D   26124.82915447  .00006472  00000+0  40612-3 0  9998
2 68694  97.6661 200.4710 0015302 206.3459 153.6993 15.09555898  3109
JILIN GAOFEN OBJECT E
1 68695U 26080E   26124.82898771  .00006428  00000+0  40320-3 0  9996
2 68695  97.6644 200.4666 0015594 206.1313 153.9131 15.09568365  3088
JILIN GAOFEN OBJECT F
1 68696U 26080F   26124.82823668  .00006649  00000+0  41639-3 0  9999
2 68696  97.6616 200.4604 0014616 208.3893 151.6541 15.09624880  3086
JILIN GAOFEN OBJECT G
1 68697U 26080G   26124.82696209  .00006672  00000+0  41673-3 0  9993
2 68697  97.6660 200.4729 0015081 209.3444 150.6939 15.09718330  3088
JILIN GAOFEN OBJECT H
1 68698U 26080H   26124.82641593  .00006708  00000+0  41853-3 0  9990
2 68698  97.6648 200.4707 0014850 210.3461 149.6909 15.09758359  3085
STARLINK-37358
1 68699U 26081A   26124.52838896  .00244173  00000+0  12016-2 0  9991
2 68699  53.1570 141.1000 0001148 112.7339 247.3805 15.80952383  3206
STARLINK-37334
1 68700U 26081B   26124.84372935  .00508867  00000+0  24089-2 0  9992
2 68700  53.1566 139.5100 0000712 162.7988 197.3059 15.81086235  3252
STARLINK-36955
1 68701U 26081C   26124.84297922  .00420139  00000+0  20135-2 0  9998
2 68701  53.1571 139.5058 0000627  86.7426 273.3669 15.81051804  3254
STARLINK-36275
1 68702U 26081D   26124.84222940  .00421977  00000+0  20221-2 0  9994
2 68702  53.1570 139.5004 0000766 119.4993 240.6106 15.81049629  3257
STARLINK-36271
1 68703U 26081E   26124.84147918  .00424001  00000+0  20309-2 0  9994
2 68703  53.1572 139.4959 0000630  76.0507 284.0586 15.81054301  3254
STARLINK-37356
1 68704U 26081F   26124.84073013  .00420512  00000+0  20157-2 0  9993
2 68704  53.1570 139.4911 0000803  79.5739 280.5375 15.81047792  3251
STARLINK-35369
1 68705U 26081G   26124.83997973  .00422831  00000+0  20260-2 0  9994
2 68705  53.1567 139.4853 0000756  81.1780 278.9328 15.81049593  3255
STARLINK-37319
1 68706U 26081H   26124.52163867  .00230397  00000+0  11361-2 0  9994
2 68706  53.1571 141.0545 0001385  75.1742 284.9434 15.80947471  3209
STARLINK-37112
1 68707U 26081J   26124.83922808  .00448351  00000+0  21404-2 0  9997
2 68707  53.1573 139.4808 0000914 144.3454 215.7630 15.81062359  3250
STARLINK-37340
1 68708U 26081K   26124.83847785  .00424383  00000+0  20330-2 0  9994
2 68708  53.1567 139.4749 0001036 146.7590 213.3498 15.81050485  3254
STARLINK-37303
1 68709U 26081L   26124.83697887  .00424025  00000+0  20313-2 0  9995
2 68709  53.1567 139.4651 0001172 125.1935 234.9198 15.81051505  3252
STARLINK-36859
1 68710U 26081M   26124.77302112  .00348887  00000+0  16915-2 0  9998
2 68710  53.1569 139.7764 0002384  79.9942 280.1349 15.80991470  3247
STARLINK-37320
1 68711U 26081N   26124.77226639  .00374988  00000+0  18151-2 0  9993
2 68711  53.1568 139.7709 0001791 111.1584 248.9630 15.80957596  3244
STARLINK-37318
1 68712U 26081P   26124.77152074  .00382744  00000+0  18476-2 0  9994
2 68712  53.1570 139.7663 0002433  87.6303 272.4999 15.80995230  3244
STARLINK-37305
1 68713U 26081Q   26124.77076538  .00356692  00000+0  17270-2 0  9999
2 68713  53.1567 139.7615 0001446  92.3151 267.8037 15.80999587  3245
STARLINK-37225
1 68714U 26081R   26124.77002082  .00346219  00000+0  16797-2 0  9990
2 68714  53.1570 139.7566 0002473  79.6092 280.5209 15.80984030  3248
STARLINK-37322
1 68715U 26081S   26124.76927058  .00381625  00000+0  18425-2 0  9999
2 68715  53.1572 139.7515 0002675  74.0516 286.0802 15.80994658  3246
STARLINK-36337
1 68716U 26081T   26124.76851613  .00383973  00000+0  18523-2 0  9990
2 68716  53.1573 139.7464 0002012  94.5931 265.5322 15.81006922  3242
STARLINK-36685
1 68717U 26081U   26124.76776529  .00368514  00000+0  17815-2 0  9990
2 68717  53.1570 139.7411 0001847  96.0445 264.0788 15.81001310  3240
STARLINK-36684
1 68718U 26081V   26124.76702566  .00404292  00000+0  19463-2 0  9996
2 68718  53.1572 139.7358 0003554  83.9138 276.2290 15.80996791  3242
STARLINK-36686
1 68719U 26081W   26124.76551451  .00344990  00000+0  16733-2 0  9997
2 68719  53.1569 139.7264 0001806  77.9449 282.1776 15.80993139  3249
STARLINK-36681
1 68720U 26081X   26124.76626937  .00364252  00000+0  17633-2 0  9994
2 68720  53.1569 139.7313 0002500  68.8317 291.2973 15.80983866  3247
STARLINK-36680
1 68721U 26081Y   26124.76476491  .00372187  00000+0  17985-2 0  9999
2 68721  53.1572 139.7214 0001878  74.1372 285.9857 15.81001547  3249
STARLINK-37271
1 68722U 26081Z   26124.76401779  .00366180  00000+0  17716-2 0  9995
2 68722  53.1569 139.7161 0002171  81.3110 278.8159 15.80991007  3248
STARLINK-37273
1 68723U 26081AA  26124.76326815  .00390341  00000+0  18824-2 0  9990
2 68723  53.1570 139.7104 0002463  70.3172 289.8117 15.80997239  3247
STARLINK-37274
1 68724U 26081AB  26124.76252046  .00292933  00000+0  14321-2 0  9991
2 68724  53.1571 139.7068 0002843  73.6912 286.4423 15.80960287  3244
STARLINK-37275
1 68725U 26081AC  26124.76101238  .00328138  00000+0  15951-2 0  9995
2 68725  53.1573 139.6959 0001478  76.0110 284.1077 15.80989373  3242
STARLINK-37272
1 68726U 26081AD  26124.76176812  .00382090  00000+0  18443-2 0  9992
2 68726  53.1568 139.7016 0002453  83.6078 276.5224 15.80998706  3242
STARLINK-37270
1 68727U 26081AE  26124.76026682  .00376553  00000+0  18189-2 0  9996
2 68727  53.1569 139.6901 0002152  68.8801 291.2451 15.80997954  3241
STARLINK-37242
1 68728U 26082A   26124.69718172  .00135642  00000+0  69627-3 0  9998
2 68728  97.2814 347.4536 0001679 101.2116 258.9341 15.80867568  2942
STARLINK-37264
1 68729U 26082B   26124.79598014  .00141516  00000+0  93203-3 0  9995
2 68729  97.2830 347.4708 0001241  65.8951 294.2444 15.75239404  2953
STARLINK-37230
1 68730U 26082C   26124.69567860  .00195358  00000+0  99449-3 0  9992
2 68730  97.2812 347.4561 0001563 110.7561 249.3875 15.80892580  2940
